{
  "norad_id": 32376,
  "name": "COSMO-SKYMED 2",
  "history": [
    {
      "epoch": "2026-03-28T21:23:04.031232Z",
      "apogee_km": 623.45555608224,
      "perigee_km": 621.6479782425577,
      "latitude_deg": 1.1091874330081144e-05,
      "longitude_deg": 125.57823746575167,
      "height_km": 625.5393549340314,
      "semi_major_axis_km": 7000.688767162398,
      "eccentricity": 0.0001291,
      "inclination_deg": 97.8878,
      "raan_deg": 272.65,
      "arg_perigee_deg": 87.7712,
      "mean_anomaly_deg": 272.3649,
      "mean_motion_rev_day": 14.82148116
    },
    {
      "epoch": "2026-03-29T03:51:55.769760Z",
      "apogee_km": 623.4527693286009,
      "perigee_km": 621.6493920790117,
      "latitude_deg": -5.486192666212216e-05,
      "longitude_deg": 28.362702600518688,
      "height_km": 625.5395278428334,
      "semi_major_axis_km": 7000.688080703806,
      "eccentricity": 0.0001288,
      "inclination_deg": 97.8878,
      "raan_deg": 272.9162,
      "arg_perigee_deg": 87.8197,
      "mean_anomaly_deg": 272.3163,
      "mean_motion_rev_day": 14.82148334
    },
    {
      "epoch": "2026-03-30T04:10:09.643008Z",
      "apogee_km": 623.4522230027542,
      "perigee_km": 621.6320464277287,
      "latitude_deg": 7.497505175432423e-06,
      "longitude_deg": 23.80476563104246,
      "height_km": 625.5300386622683,
      "semi_major_axis_km": 7000.679134715241,
      "eccentricity": 0.00013,
      "inclination_deg": 97.8878,
      "raan_deg": 273.9142,
      "arg_perigee_deg": 87.8072,
      "mean_anomaly_deg": 272.329,
      "mean_motion_rev_day": 14.82151175
    },
    {
      "epoch": "2026-03-30T05:47:22.571808Z",
      "apogee_km": 623.4546889869152,
      "perigee_km": 621.6296119323906,
      "latitude_deg": -3.364573232728303e-05,
      "longitude_deg": -0.4990402533020362,
      "height_km": 625.5318709356421,
      "semi_major_axis_km": 7000.679150459652,
      "eccentricity": 0.00013035,
      "inclination_deg": 97.8878,
      "raan_deg": 273.9808,
      "arg_perigee_deg": 87.9272,
      "mean_anomaly_deg": 272.209,
      "mean_motion_rev_day": 14.8215117
    },
    {
      "epoch": "2026-03-30T15:30:40.115232Z",
      "apogee_km": 623.453278306958,
      "perigee_km": 621.6269416625064,
      "latitude_deg": 5.5245571382459376e-05,
      "longitude_deg": -146.32219908825243,
      "height_km": 625.530587401681,
      "semi_major_axis_km": 7000.677109984732,
      "eccentricity": 0.00013044,
      "inclination_deg": 97.8878,
      "raan_deg": 274.38,
      "arg_perigee_deg": 87.977,
      "mean_anomaly_deg": 272.1593,
      "mean_motion_rev_day": 14.82151818
    },
    {
      "epoch": "2026-03-30T21:59:31.794144Z",
      "apogee_km": 623.4537873959116,
      "perigee_km": 621.6233907563919,
      "latitude_deg": 2.1006017906017643e-05,
      "longitude_deg": 116.46251102934839,
      "height_km": 625.5308907985516,
      "semi_major_axis_km": 7000.6755890761515,
      "eccentricity": 0.00013073,
      "inclination_deg": 97.8878,
      "raan_deg": 274.6462,
      "arg_perigee_deg": 88.0957,
      "mean_anomaly_deg": 272.0406,
      "mean_motion_rev_day": 14.82152301
    },
    {
      "epoch": "2026-03-31T20:40:32.659104Z",
      "apogee_km": 623.4523569297198,
      "perigee_km": 621.6153808937179,
      "latitude_deg": -3.114226939015703e-05,
      "longitude_deg": 136.2088342558394,
      "height_km": 625.5235433312683,
      "semi_major_axis_km": 7000.670868911719,
      "eccentricity": 0.0001312,
      "inclination_deg": 97.8881,
      "raan_deg": 275.5777,
      "arg_perigee_deg": 87.939,
      "mean_anomaly_deg": 272.1973,
      "mean_motion_rev_day": 14.821538
    },
    {
      "epoch": "2026-04-01T19:21:33.465312Z",
      "apogee_km": 623.4451061689579,
      "perigee_km": 621.619331636668,
      "latitude_deg": 6.258362568046526e-05,
      "longitude_deg": 155.95538273465203,
      "height_km": 625.5182254030183,
      "semi_major_axis_km": 7000.669218902813,
      "eccentricity": 0.0001304,
      "inclination_deg": 97.8879,
      "raan_deg": 276.5092,
      "arg_perigee_deg": 87.6956,
      "mean_anomaly_deg": 272.4407,
      "mean_motion_rev_day": 14.82154324
    },
    {
      "epoch": "2026-04-02T19:39:47.051712Z",
      "apogee_km": 623.4345095875524,
      "perigee_km": 621.6171375185577,
      "latitude_deg": -7.241997120968173e-05,
      "longitude_deg": 151.3987716163462,
      "height_km": 625.5184367382649,
      "semi_major_axis_km": 7000.662823553054,
      "eccentricity": 0.0001298,
      "inclination_deg": 97.8879,
      "raan_deg": 277.5073,
      "arg_perigee_deg": 88.0997,
      "mean_anomaly_deg": 272.0364,
      "mean_motion_rev_day": 14.82156355
    },
    {
      "epoch": "2026-04-02T22:54:12.799584Z",
      "apogee_km": 623.4292222749627,
      "perigee_km": 621.6142314934314,
      "latitude_deg": 4.616559095241852e-05,
      "longitude_deg": 102.79149055874419,
      "height_km": 625.5151410849546,
      "semi_major_axis_km": 7000.658726884197,
      "eccentricity": 0.00012963,
      "inclination_deg": 97.8879,
      "raan_deg": 277.6404,
      "arg_perigee_deg": 88.1486,
      "mean_anomaly_deg": 271.9876,
      "mean_motion_rev_day": 14.82157656
    },
    {
      "epoch": "2026-04-03T19:58:00.471360Z",
      "apogee_km": 623.4147129003195,
      "perigee_km": 621.6169452538134,
      "latitude_deg": -1.5986611170710546e-05,
      "longitude_deg": 146.8428300745746,
      "height_km": 625.515770779726,
      "semi_major_axis_km": 7000.652829077067,
      "eccentricity": 0.0001284,
      "inclination_deg": 97.8879,
      "raan_deg": 278.5054,
      "arg_perigee_deg": 88.545,
      "mean_anomaly_deg": 271.591,
      "mean_motion_rev_day": 14.82159529
    },
    {
      "epoch": "2026-04-04T07:18:30.686112Z",
      "apogee_km": 623.4118568332124,
      "perigee_km": 621.6164698358634,
      "latitude_deg": 0.00010051969797049083,
      "longitude_deg": -23.28306923048195,
      "height_km": 625.5210074431669,
      "semi_major_axis_km": 7000.651163334537,
      "eccentricity": 0.00012823,
      "inclination_deg": 97.888,
      "raan_deg": 278.9712,
      "arg_perigee_deg": 88.9847,
      "mean_anomaly_deg": 271.1514,
      "mean_motion_rev_day": 14.82160058
    },
    {
      "epoch": "2026-04-05T14:05:35.553984Z",
      "apogee_km": 623.4169493490135,
      "perigee_km": 621.6014017698435,
      "latitude_deg": -6.627928772407148e-05,
      "longitude_deg": -125.05341286899072,
      "height_km": 625.5258561598002,
      "semi_major_axis_km": 7000.646175559428,
      "eccentricity": 0.00012967,
      "inclination_deg": 97.888,
      "raan_deg": 280.2354,
      "arg_perigee_deg": 89.6166,
      "mean_anomaly_deg": 270.5195,
      "mean_motion_rev_day": 14.82161642
    },
    {
      "epoch": "2026-04-05T20:34:27.077376Z",
      "apogee_km": 623.4178046070656,
      "perigee_km": 621.5976369796599,
      "latitude_deg": -4.61652177473461e-06,
      "longitude_deg": 137.73193301216511,
      "height_km": 625.5274289226322,
      "semi_major_axis_km": 7000.6447207933625,
      "eccentricity": 0.00013,
      "inclination_deg": 97.8881,
      "raan_deg": 280.5016,
      "arg_perigee_deg": 89.8092,
      "mean_anomaly_deg": 270.327,
      "mean_motion_rev_day": 14.82162104
    }
  ]
}